NORAD_CAT_ID,OBJECT_NAME,OBJECT_TYPE,EPOCH,MEAN_MOTION,ECCENTRICITY,INCLINATION,RA_OF_ASC_NODE,ARG_OF_PERICENTER,MEAN_ANOMALY,BSTAR,MEAN_MOTION_DOT,MEAN_MOTION_DDOT,TLE_LINE0,TLE_LINE1,TLE_LINE2,SEMIMAJOR_AXIS,PERIOD,APOGEE,PERIGEE,DECAYED
49167.0,STARLINK-3054,PAYLOAD,2021-12-16 22:08:08,15.17796005,0.0003246,69.9979,227.3221,257.5569,102.5237,-0.0092914,-0.00183746,0.0,0 STARLINK-3054,1 49167U 21082AP  21350.92231735 -.00183746  00000-0 -92914-2 0  9991,2 49167  69.9979 227.3221 0003246 257.5569 102.5237 15.17796005 15929,6890.64,94.874,514.742,510.268,0.0
49167.0,STARLINK-3054,PAYLOAD,2021-12-17 00:00:00,15.164382000000002,0.0003336,70.0002,227.1248,279.3093,147.0222,-0.036614,-0.0066851,0.0,0 STARLINK-3054,1 49167U 21082AP  21351.00001157 -.00668510  00000-0 -36614-1 0  9995,2 49167  70.0002 227.1248 0003336 279.3093 147.0222 15.16438200 15949,6894.753000000002,94.959,518.918,514.318,0.0
49167.0,STARLINK-3054,PAYLOAD,2021-12-17 21:53:28,15.16428741,0.000329,69.9991,224.7583,246.4486,113.6337,-0.0098722,-0.0018764,0.0,0 STARLINK-3054,1 49167U 21082AP  21351.91213954 -.00187640  00000-0 -98722-2 0  9994,2 49167  69.9991 224.7583 0003290 246.4486 113.6337 15.16428741 16078,6894.781,94.96,518.915,514.378,0.0
49167.0,STARLINK-3054,PAYLOAD,2021-12-18 06:00:00,15.14684266,0.0003333,69.9998,223.8882,264.6494,139.7156,-0.0384,-0.00667082,0.0,0 STARLINK-3054,1 49167U 21082AP  21352.25001157 -.00667082  00000-0 -38400-1 0  9991,2 49167  69.9998 223.8882 0003333 264.6494 139.7156 15.14684266 16135,6900.074000000001,95.069,524.239,519.639,0.0
49167.0,STARLINK-3054,PAYLOAD,2021-12-18 14:00:01,15.14214293,0.0003291,70.0,223.0267,267.903,153.2735,-0.038659,-0.00662979,0.0,0 STARLINK-3054,1 49167U 21082AP  21352.58334491 -.00662979  00000-0 -38659-1 0  9993,2 49167  70.0000 223.0267 0003291 267.9030 153.2735 15.14214293  3630,6901.502,95.099,525.638,521.096,0.0
49167.0,STARLINK-3054,PAYLOAD,2021-12-18 21:40:10,15.15019468,0.0002931,69.9975,222.1964,246.765,113.3209,-0.010477,-0.0019122,0.0,0 STARLINK-3054,1 49167U 21082AP  21352.90289823 -.00191220  00000-0 -10477-1 0  9991,2 49167  69.9975 222.1964 0002931 246.7650 113.3209 15.15019468 16225,6899.056,95.048,522.944,518.899,0.0
49167.0,STARLINK-3054,PAYLOAD,2021-12-19 14:00:01,15.12812761,0.0003225,70.0,220.4456,270.7656,197.4787,-0.040307,-0.00664413,0.0,0 STARLINK-3054,1 49167U 21082AP  21353.58334491 -.00664413  00000-0 -40307-1 0  9992,2 49167  70.0000 220.4456 0003225 270.7656 197.4787 15.12812761 16334,6905.764,95.187,529.856,525.4019999999998,0.0
49167.0,STARLINK-3054,PAYLOAD,2021-12-19 21:28:08,15.13640813,0.0002811,69.9971,219.638,250.8091,109.2771,-0.011134,-0.00195353,0.0,0 STARLINK-3054,1 49167U 21082AP  21353.89454398 -.00195353  00000-0 -11134-1 0  9993,2 49167  69.9971 219.6380 0002811 250.8091 109.2771 15.13640813 16372,6903.245,95.135,527.0509999999998,523.17,0.0
49167.0,STARLINK-3054,PAYLOAD,2021-12-20 14:00:01,15.11411086,0.0003133,70.0,217.8701,269.9504,240.3159,-0.041993,-0.00665552,0.0,0 STARLINK-3054,1 49167U 21082AP  21354.58334491 -.00665552  00000-0 -41993-1 0  9990,2 49167  70.0000 217.8701 0003133 269.9504 240.3159 15.11411086  3631,6910.033,95.275,534.063,529.7330000000002,0.0
49167.0,STARLINK-3054,PAYLOAD,2021-12-20 22:00:01,15.10942098,0.0003134,70.0,217.0128,273.4266,249.7897,-0.042427,-0.0066384,0.0,0 STARLINK-3054,1 49167U 21082AP  21354.91668981 -.00663840  00000-0 -42427-1 0  9992,2 49167  70.0000 217.0128 0003134 273.4266 249.7897 15.10942098 16549,6911.4630000000025,95.305,535.494,531.1619999999998,0.0
49167.0,STARLINK-3054,PAYLOAD,2021-12-21 14:00:01,15.09921729,0.000316,69.9994,215.299,270.9275,276.36,-0.03532,-0.00538865,0.0,0 STARLINK-3054,1 49167U 21082AP  21355.58334491 -.00538865  00000-0 -35320-1 0  9994,2 49167  69.9994 215.2990 0003160 270.9275 276.3600 15.09921729  3603,6914.576,95.369,538.626,534.256,0.0
49167.0,STARLINK-3054,PAYLOAD,2021-12-21 22:00:00,15.09538875,0.000308,70.0,214.4447,272.027,286.4215,-0.044005,-0.00662424,0.0,0 STARLINK-3054,1 49167U 21082AP  21355.91667824 -.00662424  00000-0 -44005-1 0  9999,2 49167  70.0000 214.4447 0003080 272.0270 286.4215 15.09538875  3623,6915.745,95.393,539.74,535.48,0.0
49167.0,STARLINK-3054,PAYLOAD,2021-12-22 06:00:00,15.09073316,0.0003168,69.9998,213.5898,260.0129,309.0784,-0.044754,-0.00664968,0.0,0 STARLINK-3054,1 49167U 21082AP  21356.25001157 -.00664968  00000-0 -44754-1 0  9994,2 49167  69.9998 213.5898 0003168 260.0129 309.0784 15.09073316 16747,6917.167,95.423,541.224,536.841,0.0
49167.0,STARLINK-3054,PAYLOAD,2021-12-22 14:00:01,15.08606123,0.0003086,70.0001,212.7357,267.2975,311.8764,-0.04534,-0.00665078,0.0,0 STARLINK-3054,1 49167U 21082AP  21356.58334491 -.00665078  00000-0 -45340-1 0  9995,2 49167  70.0001 212.7357 0003086 267.2975 311.8764 15.08606123  3622,6918.595,95.452,542.595,538.325,0.0
49167.0,STARLINK-3054,PAYLOAD,2021-12-22 22:00:00,15.08136173,0.0003081,70.0,211.8821,270.1013,318.5963,-0.045684,-0.00661779,0.0,0 STARLINK-3054,1 49167U 21082AP  21356.91667824 -.00661779  00000-0 -45684-1 0  9996,2 49167  70.0000 211.8821 0003081 270.1013 318.5963 15.08136173  3648,6920.033,95.482,544.03,539.765,0.0
49167.0,STARLINK-3054,PAYLOAD,2021-12-23 14:00:01,15.07203394,0.0003098,70.0001,210.1769,266.8457,339.2136,-0.047059,-0.00664404,0.0,0 STARLINK-3054,1 49167U 21082AP  21357.58334491 -.00664404  00000-0 -47059-1 0  9997,2 49167  70.0001 210.1769 0003098 266.8457 339.2136 15.07203394 16942,6922.887,95.541,546.8969999999998,542.6080000000002,0.0
49167.0,STARLINK-3054,PAYLOAD,2021-12-23 22:00:00,15.06733713,0.0003093,70.0,209.3251,269.2637,344.6371,-0.047444,-0.00661537,0.0,0 STARLINK-3054,1 49167U 21082AP  21357.91667824 -.00661537  00000-0 -47444-1 0  9995,2 49167  70.0000 209.3251 0003093 269.2637 344.6371 15.06733713  3634,6924.326,95.571,548.3330000000002,544.049,0.0
49167.0,STARLINK-3054,PAYLOAD,2021-12-24 14:00:01,15.05651962,0.0003279,69.9995,207.6224,263.3343,4.6466,-0.0336029999999999,-0.00456415,0.0,0 STARLINK-3054,1 49167U 21082AP  21358.58334491 -.00456415  00000-0 -33603-1 0  9999,2 49167  69.9995 207.6224 0003279 263.3343   4.6466 15.05651962  3597,6927.642,95.64,551.779,547.236,0.0
49167.0,STARLINK-3054,PAYLOAD,2021-12-24 22:00:00,15.05331497,0.0003109,70.0,206.7737,269.0647,4.9935,-0.049296,-0.00661777,0.0,0 STARLINK-3054,1 49167U 21082AP  21358.91667824 -.00661777  00000-0 -49296-1 0  9999,2 49167  70.0000 206.7737 0003109 269.0647   4.9935 15.05331497 17146,6928.625,95.66,552.644,548.336,0.0
49167.0,STARLINK-3054,PAYLOAD,2021-12-25 14:00:01,15.04398195,0.000316,70.0002,205.0758,263.9241,20.7685,-0.050692,-0.00663549,0.0,0 STARLINK-3054,1 49167U 21082AP  21359.58334491 -.00663549  00000-0 -50692-1 0  9995,2 49167  70.0002 205.0758 0003160 263.9241  20.7685 15.04398195  3615,6931.491,95.719,555.5459999999998,551.165,0.0
49167.0,STARLINK-3054,PAYLOAD,2021-12-25 22:00:00,15.03929268,0.0003152,70.0,204.2278,266.6185,22.5516,-0.051209,-0.00662052,0.0,0 STARLINK-3054,1 49167U 21082AP  21359.91667824 -.00662052  00000-0 -51209-1 0  9994,2 49167  70.0000 204.2278 0003152 266.6185  22.5516 15.03929268  3612,6932.931,95.749,556.982,552.611,0.0
49167.0,STARLINK-3054,PAYLOAD,2021-12-26 06:00:02,15.03463658,0.000321,69.9999,203.3803,261.0265,32.1218,-0.052153,-0.00665683,0.0,0 STARLINK-3054,1 49167U 21082AP  21360.25002315 -.00665683  00000-0 -52153-1 0  9993,2 49167  69.9999 203.3803 0003210 261.0265  32.1218 15.03463658 17340,6934.363,95.779,558.4540000000002,554.002,0.0
49167.0,STARLINK-3054,PAYLOAD,2021-12-26 14:00:01,15.029956099999998,0.0003171,70.0002,202.5337,267.8572,28.5835,-0.0526,-0.00663227,0.0,0 STARLINK-3054,1 49167U 21082AP  21360.58334491 -.00663227  00000-0 -52600-1 0  9991,2 49167  70.0002 202.5337 0003171 267.8572  28.5835 15.02995610  3607,6935.802,95.809,559.867,555.4680000000002,0.0
49167.0,STARLINK-3054,PAYLOAD,2021-12-26 22:00:00,15.02527046,0.0003146,70.0001,201.6874,269.3554,29.8807,-0.05318,-0.00662298,0.0,0 STARLINK-3054,1 49167U 21082AP  21360.91667824 -.00662298  00000-0 -53180-1 0  9998,2 49167  70.0001 201.6874 0003146 269.3554  29.8807 15.02527046  3608,6937.244000000002,95.839,561.2919999999998,556.927,0.0
49167.0,STARLINK-3054,PAYLOAD,2021-12-27 14:00:01,15.01569978,0.0003107,70.0002,199.9969,269.6313,33.5139,-0.00011786,-1.626e-05,0.0,0 STARLINK-3054,1 49167U 21082AP  21361.58334491 -.00001626  00000-0 -11786-3 0  9993,2 49167  70.0002 199.9969 0003107 269.6313  33.5139 15.01569978 17543,6940.191999999999,95.9,564.2130000000002,559.9,0.0
49167.0,STARLINK-3054,PAYLOAD,2021-12-27 22:00:00,15.01495382,0.0003096,69.9998,199.1503,270.5508,34.0154,0.0069573,0.00091235,0.0,0 STARLINK-3054,1 49167U 21082AP  21361.91667824  .00091235  00000-0  69573-2 0  9998,2 49167  69.9998 199.1503 0003096 270.5508  34.0154 15.01495382  3606,6940.420999999999,95.904,564.435,560.138,0.0
49167.0,STARLINK-3054,PAYLOAD,2021-12-28 14:00:01,15.01600012,0.0003082,69.9994,197.4595,263.8122,43.4648,-0.00092857,-0.00012141,0.0,0 STARLINK-3054,1 49167U 21082AP  21362.58334491 -.00012141  00000-0 -92857-3 0  9996,2 49167  69.9994 197.4595 0003082 263.8122  43.4648 15.01600012 17690,6940.099,95.898,564.1030000000002,559.825,0.0
49167.0,STARLINK-3054,PAYLOAD,2021-12-28 22:00:00,15.0162631,0.0003156,70.0001,196.6172,270.1539,38.5402,-0.062624,-0.00762614,0.0,0 STARLINK-3054,1 49167U 21082AP  21362.91667824 -.00762614  00000-0 -62624-1 0  9996,2 49167  70.0001 196.6172 0003156 270.1539  38.5402 15.01626310  3607,6940.018,95.896,564.073,559.693,0.0
49167.0,STARLINK-3054,PAYLOAD,2021-12-29 06:00:02,15.01093432,0.000324,70.0,195.7738,261.2478,48.6156,-0.055437,-0.00664566,0.0,0 STARLINK-3054,1 49167U 21082AP  21363.25002315 -.00664566  00000-0 -55437-1 0  9993,2 49167  70.0000 195.7738 0003240 261.2478  48.6156 15.01093432 17797,6941.66,95.93,565.774,561.276,0.0
